start=new Date('2022-01-04T00:00:00.000Z').valueOf();
sats=[{"RCS_SIZE":"LARGE","EPHEMERIS_TYPE":"0","PERIAPSIS":"546.352","FILE":"3256498","MEAN_MOTION_DOT":"0.00000447","GP_ID":"193014867","CLASSIFICATION_TYPE":"U","SITE":"AFETR","INCLINATION":"53.0561","REV_AT_EPOCH":"9548","ARG_OF_PERICENTER":"76.0366","MEAN_MOTION_DDOT":"0.0000000000000","ELEMENT_SET_NO":"999","MEAN_ANOMALY":"284.0763","TLE_LINE2":"2 45586  53.0561  87.3473 0001255  76.0366 284.0763 15.06397436 95483","OBJECT_ID":"2020-025BH","ECCENTRICITY":"0.00012550","BSTAR":"0.00004892400000","MEAN_MOTION":"15.06397436","NORAD_CAT_ID":"45586","APOAPSIS":"548.091","TIME_SYSTEM":"UTC","OBJECT_NAME":"STARLINK-1347","COUNTRY_CODE":"US","DECAY_DATE":null,"LAUNCH_DATE":"2020-04-22","PERIOD":"95.592","EPOCH":"2022-01-03T15:11:31.883424","MEAN_ELEMENT_THEORY":"SGP4","OBJECT_TYPE":"PAYLOAD","SEMIMAJOR_AXIS":"6925.356","REF_FRAME":"TEME","CENTER_NAME":"EARTH","TLE_LINE1":"1 45586U 20025BH  22003.63300791  .00000447  00000-0  48924-4 0  9999","RA_OF_ASC_NODE":"87.3473"},{"PERIOD":"95.592","MEAN_ELEMENT_THEORY":"SGP4","EPOCH":"2022-01-03T11:17:59.642016","OBJECT_TYPE":"PAYLOAD","SEMIMAJOR_AXIS":"6925.348","REF_FRAME":"TEME","CENTER_NAME":"EARTH","RA_OF_ASC_NODE":"88.0825","TLE_LINE1":"1 45587U 20025BJ  22003.47082919  .00003040  00000-0  22289-3 0  9998","APOAPSIS":"548.016","NORAD_CAT_ID":"45587","MEAN_MOTION":"15.06400205","TIME_SYSTEM":"UTC","OBJECT_NAME":"STARLINK-1349","COUNTRY_CODE":"US","DECAY_DATE":null,"LAUNCH_DATE":"2020-04-22","OBJECT_ID":"2020-025BJ","TLE_LINE2":"2 45587  53.0533  88.0825 0001160  84.7081 275.4040 15.06400205 95477","ECCENTRICITY":"0.00011600","BSTAR":"0.00022289000000","EPHEMERIS_TYPE":"0","RCS_SIZE":"LARGE","PERIAPSIS":"546.410","FILE":"3255250","MEAN_MOTION_DOT":"0.00003040","GP_ID":"192966412","CLASSIFICATION_TYPE":"U","ARG_OF_PERICENTER":"84.7081","SITE":"AFETR","INCLINATION":"53.0533","REV_AT_EPOCH":"9547","MEAN_MOTION_DDOT":"0.0000000000000","MEAN_ANOMALY":"275.4040","ELEMENT_SET_NO":"999"},{"MEAN_MOTION":"15.06401283","NORAD_CAT_ID":"45588","APOAPSIS":"548.073","TIME_SYSTEM":"UTC","OBJECT_NAME":"STARLINK-1360","COUNTRY_CODE":"US","DECAY_DATE":null,"LAUNCH_DATE":"2020-04-22","PERIOD":"95.592","EPOCH":"2022-01-03T17:08:17.999808","MEAN_ELEMENT_THEORY":"SGP4","OBJECT_TYPE":"PAYLOAD","SEMIMAJOR_AXIS":"6925.345","REF_FRAME":"TEME","CENTER_NAME":"EARTH","TLE_LINE1":"1 45588U 20025BK  22003.71409722  .00000871  00000-0  77357-4 0  9997","RA_OF_ASC_NODE":"86.9975","RCS_SIZE":"LARGE","EPHEMERIS_TYPE":"0","PERIAPSIS":"546.346","FILE":"3256498","CLASSIFICATION_TYPE":"U","GP_ID":"193015869","MEAN_MOTION_DOT":"0.00000871","REV_AT_EPOCH":"9550","SITE":"AFETR","INCLINATION":"53.0546","ARG_OF_PERICENTER":"78.1888","MEAN_MOTION_DDOT":"0.0000000000000","ELEMENT_SET_NO":"999","MEAN_ANOMALY":"281.9241","TLE_LINE2":"2 45588  53.0546  86.9975 0001247  78.1888 281.9241 15.06401283 95509","OBJECT_ID":"2020-025BK","ECCENTRICITY":"0.00012470","BSTAR":"0.00007735700000"},{"NORAD_CAT_ID":"45589","APOAPSIS":"548.131","MEAN_MOTION":"15.06398541","OBJECT_NAME":"STARLINK-1364","TIME_SYSTEM":"UTC","COUNTRY_CODE":"US","LAUNCH_DATE":"2020-04-22","DECAY_DATE":null,"MEAN_ELEMENT_THEORY":"SGP4","EPOCH":"2022-01-03T12:16:22.580544","PERIOD":"95.592","SEMIMAJOR_AXIS":"6925.353","OBJECT_TYPE":"PAYLOAD","CENTER_NAME":"EARTH","REF_FRAME":"TEME","RA_OF_ASC_NODE":"87.9018","TLE_LINE1":"1 45589U 20025BL  22003.51137246 -.00000613  00000-0 -22294-4 0  9991","PERIAPSIS":"546.305","RCS_SIZE":"LARGE","EPHEMERIS_TYPE":"0","FILE":"3255250","ARG_OF_PERICENTER":"96.1145","INCLINATION":"53.0549","SITE":"AFETR","REV_AT_EPOCH":"9547","GP_ID":"192966913","MEAN_MOTION_DOT":"-0.00000613","CLASSIFICATION_TYPE":"U","MEAN_ANOMALY":"263.9994","ELEMENT_SET_NO":"999","MEAN_MOTION_DDOT":"0.0000000000000","OBJECT_ID":"2020-025BL","TLE_LINE2":"2 45589  53.0549  87.9018 0001318  96.1145 263.9994 15.06398541 95470","BSTAR":"-0.00002229400000","ECCENTRICITY":"0.00013180"},{"BSTAR":"0.00006534300000","ECCENTRICITY":"0.00013530","TLE_LINE2":"2 45590  53.0548 116.6423 0001353  99.9951 260.1191 15.06400262 95119","OBJECT_ID":"2020-025BM","ELEMENT_SET_NO":"999","MEAN_ANOMALY":"260.1191","MEAN_MOTION_DDOT":"0.0000000000000","REV_AT_EPOCH":"9511","SITE":"AFETR","INCLINATION":"53.0548","ARG_OF_PERICENTER":"99.9951","CLASSIFICATION_TYPE":"U","GP_ID":"193014372","MEAN_MOTION_DOT":"0.00000692","FILE":"3256498","PERIAPSIS":"546.276","RCS_SIZE":"LARGE","EPHEMERIS_TYPE":"0","TLE_LINE1":"1 45590U 20025BM  22003.79242483  .00000692  00000-0  65343-4 0  9990","RA_OF_ASC_NODE":"116.6423","CENTER_NAME":"EARTH","REF_FRAME":"TEME","SEMIMAJOR_AXIS":"6925.348","OBJECT_TYPE":"PAYLOAD","EPOCH":"2022-01-03T19:01:05.505312","MEAN_ELEMENT_THEORY":"SGP4","PERIOD":"95.592","LAUNCH_DATE":"2020-04-22","DECAY_DATE":null,"COUNTRY_CODE":"US","TIME_SYSTEM":"UTC","OBJECT_NAME":"STARLINK-1365","MEAN_MOTION":"15.06400262","APOAPSIS":"548.150","NORAD_CAT_ID":"45590"},{"CENTER_NAME":"EARTH","REF_FRAME":"TEME","TLE_LINE1":"1 45658U 20035B   22003.43489206  .00000311  00000-0  39810-4 0  9991","RA_OF_ASC_NODE":"78.2415","EPOCH":"2022-01-03T10:26:14.673984","MEAN_ELEMENT_THEORY":"SGP4","PERIOD":"95.592","SEMIMAJOR_AXIS":"6925.360","OBJECT_TYPE":"PAYLOAD","COUNTRY_CODE":"US","LAUNCH_DATE":"2020-06-04","DECAY_DATE":null,"MEAN_MOTION":"15.06396165","APOAPSIS":"548.227","NORAD_CAT_ID":"45658","TIME_SYSTEM":"UTC","OBJECT_NAME":"STARLINK-1441","BSTAR":"0.00003981000000","ECCENTRICITY":"0.00014460","TLE_LINE2":"2 45658  53.0550  78.2415 0001446 102.2120 257.9031 15.06396165 88698","OBJECT_ID":"2020-035B","REV_AT_EPOCH":"8869","SITE":"AFETR","INCLINATION":"53.0550","ARG_OF_PERICENTER":"102.2120","CLASSIFICATION_TYPE":"U","GP_ID":"192966919","MEAN_MOTION_DOT":"0.00000311","ELEMENT_SET_NO":"999","MEAN_ANOMALY":"257.9031","MEAN_MOTION_DDOT":"0.0000000000000","PERIAPSIS":"546.224","RCS_SIZE":"LARGE","EPHEMERIS_TYPE":"0","FILE":"3255250"},{"OBJECT_ID":"2020-035C","TLE_LINE2":"2 45659  53.0597  78.5024 0001165  81.4380 278.6742 15.06406343 88670","ECCENTRICITY":"0.00011650","BSTAR":"0.00020676000000","FILE":"3255250","EPHEMERIS_TYPE":"0","RCS_SIZE":"LARGE","PERIAPSIS":"546.387","MEAN_MOTION_DDOT":"0.0000000000000","MEAN_ANOMALY":"278.6742","ELEMENT_SET_NO":"999","CLASSIFICATION_TYPE":"U","GP_ID":"192967666","MEAN_MOTION_DOT":"0.00002800","ARG_OF_PERICENTER":"81.4380","SITE":"AFETR","INCLINATION":"53.0597","REV_AT_EPOCH":"8867","OBJECT_TYPE":"PAYLOAD","SEMIMAJOR_AXIS":"6925.329","PERIOD":"95.592","MEAN_ELEMENT_THEORY":"SGP4","EPOCH":"2022-01-03T08:54:39.523392","RA_OF_ASC_NODE":"78.5024","TLE_LINE1":"1 45659U 20035C   22003.37129078  .00002800  00000-0  20676-3 0  9997","REF_FRAME":"TEME","CENTER_NAME":"EARTH","OBJECT_NAME":"STARLINK-1442","TIME_SYSTEM":"UTC","NORAD_CAT_ID":"45659","APOAPSIS":"548.001","MEAN_MOTION":"15.06406343","DECAY_DATE":null,"LAUNCH_DATE":"2020-06-04","COUNTRY_CODE":"US"},{"MEAN_MOTION":"15.06392083","APOAPSIS":"548.078","NORAD_CAT_ID":"45660","OBJECT_NAME":"STARLINK-1443","TIME_SYSTEM":"UTC","COUNTRY_CODE":"US","LAUNCH_DATE":"2020-06-04","DECAY_DATE":null,"EPOCH":"2022-01-03T12:17:42.700128","MEAN_ELEMENT_THEORY":"SGP4","PERIOD":"95.593","SEMIMAJOR_AXIS":"6925.373","OBJECT_TYPE":"PAYLOAD","CENTER_NAME":"EARTH","REF_FRAME":"TEME","TLE_LINE1":"1 45660U 20035D   22003.51229977  .00000896  00000-0  79016-4 0  9990","RA_OF_ASC_NODE":"77.9050","PERIAPSIS":"546.398","RCS_SIZE":"LARGE","EPHEMERIS_TYPE":"0","FILE":"3255250","SITE":"AFETR","REV_AT_EPOCH":"8870","INCLINATION":"53.0548","ARG_OF_PERICENTER":"80.3333","GP_ID":"192965918","MEAN_MOTION_DOT":"0.00000896","CLASSIFICATION_TYPE":"U","ELEMENT_SET_NO":"999","MEAN_ANOMALY":"279.7793","MEAN_MOTION_DDOT":"0.0000000000000","TLE_LINE2":"2 45660  53.0548  77.9050 0001213  80.3333 279.7793 15.06392083 88707","OBJECT_ID":"2020-035D","BSTAR":"0.00007901600000","ECCENTRICITY":"0.00012130"},{"TIME_SYSTEM":"UTC","OBJECT_NAME":"STARLINK-1444","MEAN_MOTION":"15.06406463","NORAD_CAT_ID":"45661","APOAPSIS":"548.048","DECAY_DATE":null,"LAUNCH_DATE":"2020-06-04","COUNTRY_CODE":"US","OBJECT_TYPE":"PAYLOAD","SEMIMAJOR_AXIS":"6925.329","PERIOD":"95.592","EPOCH":"2022-01-03T14:19:47.546976","MEAN_ELEMENT_THEORY":"SGP4","TLE_LINE1":"1 45661U 20035E   22003.59707809  .00005795  00000-0  40755-3 0  9994","RA_OF_ASC_NODE":"77.5160","REF_FRAME":"TEME","CENTER_NAME":"EARTH","FILE":"3256498","EPHEMERIS_TYPE":"0","RCS_SIZE":"LARGE","PERIAPSIS":"546.339","MEAN_MOTION_DDOT":"0.0000000000000","ELEMENT_SET_NO":"999","MEAN_ANOMALY":"276.0416","GP_ID":"193015380","MEAN_MOTION_DOT":"0.00005795","CLASSIFICATION_TYPE":"U","SITE":"AFETR","REV_AT_EPOCH":"8871","INCLINATION":"53.0529","ARG_OF_PERICENTER":"84.0713","TLE_LINE2":"2 45661  53.0529  77.5160 0001234  84.0713 276.0416 15.06406463 88712","OBJECT_ID":"2020-035E","ECCENTRICITY":"0.00012340","BSTAR":"0.00040755000000"},{"MEAN_MOTION":"15.06408768","NORAD_CAT_ID":"45662","APOAPSIS":"548.091","OBJECT_NAME":"STARLINK-1445","TIME_SYSTEM":"UTC","COUNTRY_CODE":"US","LAUNCH_DATE":"2020-06-04","DECAY_DATE":null,"EPOCH":"2022-01-03T09:54:23.634720","MEAN_ELEMENT_THEORY":"SGP4","PERIOD":"95.592","SEMIMAJOR_AXIS":"6925.322","OBJECT_TYPE":"PAYLOAD","CENTER_NAME":"EARTH","REF_FRAME":"TEME","TLE_LINE1":"1 45662U 20035F   22003.41277355  .00000629  00000-0  61089-4 0  9999","RA_OF_ASC_NODE":"78.3434","PERIAPSIS":"546.282","EPHEMERIS_TYPE":"0","RCS_SIZE":"LARGE","FILE":"3255250","SITE":"AFETR","REV_AT_EPOCH":"8868","INCLINATION":"53.0535","ARG_OF_PERICENTER":"83.4160","CLASSIFICATION_TYPE":"U","GP_ID":"192967420","MEAN_MOTION_DOT":"0.00000629","ELEMENT_SET_NO":"999","MEAN_ANOMALY":"276.6978","MEAN_MOTION_DDOT":"0.0000000000000","TLE_LINE2":"2 45662  53.0535  78.3434 0001306  83.4160 276.6978 15.06408768 88687","OBJECT_ID":"2020-035F","BSTAR":"0.00006108900000","ECCENTRICITY":"0.00013060"}];
